 2015  5 1 2336 15.6 L  37.264 -32.303  0.9  wcc  4 0.0-1.2Lwcc                1
 GAP=176        0.17       1.9     1.6  2.6  0.2153E+01 -0.2954E+01 -0.5028E+01E
 ACTION:UPD 20-02-26 15:55 OP:sb   STATUS:               ID:20150501233615 L   I
 2015-05-01-2335-58M.VNRC__020                                                 6
 STAT SP IPHASW D HRMM SECON CODA AMPLIT PERI AZIMU VELO AIN AR TRES W  DIS CAZ7
 LSVSIS1  Sg  0A  2336 16.42                             138   -0.0010 0.62 155 
 LSVSIS1  IAML A  2336 16.64        6.17 0.10                          0.62 155 
 LSVCISZ  IAML A  2336 12.15        4.75 0.38                          3.62  34 
 LSVCISZ  Pg  0A  2336 17.03                              94    0.0110 3.62  34 
 LSVWISZ  Pg  2A  2336 16.88                              93   -0.01 5 4.02 331 
 LSVWISZ  IAML A  2336 18.56        9.49 0.10                          4.02 331 
 LSVEISZ  Pg  0A  2336 17.46                              92   -0.0110 5.61  71 
 LSVEISZ  IAML A  2336 35.06        7.63 0.19                          5.61  71 
                                                                                
 2015  5 2 0039 59.0 L  37.278 -32.285  4.1  wcc  4 0.1-0.9Lwcc                1
 GAP=125        0.34       2.7     1.4  7.8  0.8947E+00 -0.2753E+01 -0.1664E+02E
 ACTION:UPD 20-02-26 15:55 OP:sb   STATUS:               ID:20150502003959 L   I
 2015-05-02-0039-44M.VNRC__020                                                 6
 STAT SP IPHASW D HRMM SECON CODA AMPLIT PERI AZIMU VELO AIN AR TRES W  DIS CAZ7
 LSVCISZ  Pg  0A   040  0.39                             152    0.2610 1.50  17 
 LSVCISZ  IAML A   040  0.61       25.12 0.10                          1.50  17 
 LSVSISZ  Pg  3A   040  0.05                             136   -0.03 2 2.50 212 
 LSVSIS1  Sg  0A   040  0.99                             136    0.0110 2.50 212 
 LSVSISZ  IAML A   040  1.18        1.81 0.13                          2.50 212 
 LSVEISZ  Pg  2A   040  0.16                             120   -0.02 5 3.75  86 
 LSVEIS1  Sg  0A   040  1.04                             120   -0.1410 3.75  86 
 LSVEISZ  IAML A   040  1.20        3.08 0.19                          3.75  86 
 LSVWISZ  Pg  2A   040  0.15                             117    0.05 5 4.02 299 
 LSVWIS1  Sg  0A   040  0.90                             117   -0.1410 4.02 299 
 LSVWISZ  IAML A   040  1.22       14.10 0.06                          4.02 299 
                                                                                
 2015  5 2 0348 43.5 L  37.295 -32.293  6.0  wcc  4 0.1-1.0Lwcc                1
 GAP=164        0.24       4.6     9.4 14.1  0.2360E+02 -0.1299E+03 -0.3746E+02E
 ACTION:UPD 20-02-26 15:55 OP:sb   STATUS:               ID:20150502034843 L   I
 2015-05-02-0348-29M.VNRC__020                                                 6
 STAT SP IPHASW D HRMM SECON CODA AMPLIT PERI AZIMU VELO AIN AR TRES W  DIS CAZ7
 LSVCISZ  Pg  0A   348 44.95                             166    0.1210 1.17 107 
 LSVCISZ  IAML A   349 12.58        5.59 0.51                          1.17 107 
 LSVWISZ  Pg  3A   348 44.77                             148    0.13 2 2.85 273 
 LSVWIS1  Sg  0A   348 45.57                             148   -0.0610 2.85 273 
 LSVWISZ  IAML A   349  3.96        7.20 0.13                          2.85 273 
 LSVNISZ  Pg  0A   348 44.72                             147   -0.0210 3.03  24 
 LSVNISZ  IAML A   348 45.78        3.25 0.16                          3.03  24 
 LSVEISZ  Pg  2A   348 44.72                             133   -0.20 5 4.67 109 
 LSVEISZ  IAML A   349 14.74        1.48 0.67                          4.67 109 
                                                                                
 2015  5 2 0358  3.7 L  37.269 -32.285  1.1  wcc  4 0.2-1.0Lwcc                1
 GAP=158        0.50       1.3     1.9 22.7 -0.9878E+00 -0.2594E+02 -0.4552E+01E
 ACTION:UPD 20-02-26 15:55 OP:sb   STATUS:               ID:20150502035803 L   I
 2015-05-02-0357-46M.VNRC__020                                                 6
 STAT SP IPHASW D HRMM SECON CODA AMPLIT PERI AZIMU VELO AIN AR TRES W  DIS CAZ7
 LSVSIS1  Sg  0A   358  4.70                              98   -0.2710 1.74 230 
 LSVCIS1  Sg  0A   358  5.43                              94   -0.0610 2.47  10 
 LSVCIS1  IAML A   358 32.08        5.18 0.45                          2.47  10 
 LSVEIS1  Sg  0A   358  5.79                              92   -0.0410 3.92  71 
 LSVEIS1  IAML A   358  6.90        6.40 0.13                          3.92  71 
 LSVWISZ  IAML A   358  7.16        24.4 0.10                          4.60 310 
 LSVNISZ IPg       358  3.59                                                    
 LSVEISZ IPg       358  3.04                                                    
 LSVEISZ ISg       358  5.70                                                    
 LSVSISZ  IAML A   358  4.86        15.9 0.13                          1.74 230 
 LSVSISZ IPg       358  2.30                                                    
 LSVSISZ ISg       358  4.61                                                    
                                                                                
 2015  5 2 0412 13.9 L  37.281 -32.292  1.4  wcc  4 0.1-0.9Lwcc                1
 GAP=154        0.16       1.2     4.1  4.6 -0.3915E+01  0.1695E+02 -0.3464E+01E
 ACTION:UPD 20-02-26 15:55 OP:sb   STATUS:               ID:20150502041213 L   I
 2015-05-02-0411-50M.VNRC__020                                                 6
 STAT SP IPHASW D HRMM SECON CODA AMPLIT PERI AZIMU VELO AIN AR TRES W  DIS CAZ7
 LSVCISZ  Pg  3A   412 14.59                             118   -0.15 2 1.59  42 
 LSVCIS1  Sg  0A   412 15.43                             118    0.0110 1.59  42 
 LSVCISZ  IAML A   412 17.95        5.82 0.13                          1.59  42 
 LSVNIS1  Sg  2A   412 16.21                              96   -0.03 5 4.45  15 
 LSVNIS1  IAML A   412 19.08       18.27 0.26                          4.45  15 
 LSVWISZ  IAML A   412 15.86        67.9 0.10                          3.35 300 
 LSVEISZ IPg       412  6.81                                                    
 LSVNISZ IPg       412  6.48                                                    
 LSVNISZ ISg       412 16.12                                                    
 LSVSISZ  IAML A   412 14.94         7.1 0.13                          2.48 196 
 LSVSISZ IPg       412  7.50                                                    
 LSVSISZ ISg       412 14.77                                                    
                                                                                
 2015  5 3 1216 42.9 L  37.275 -32.326  1.1  wcc  4 0.3-1.4Lwcc                1
 GAP=235        0.61       4.8    13.8 36.9  0.6336E+02 -0.2253E+03 -0.5287E+02E
 ACTION:UPD 20-02-26 15:55 OP:sb   STATUS:               ID:20150503121642 L   I
 2015-05-03-1216-28M.VNRC__020                                                 6
 STAT SP IPHASW D HRMM SECON CODA AMPLIT PERI AZIMU VELO AIN AR TRES W  DIS CAZ7
 LSVWIS1  Sg  0A  1216 43.98                              95   -0.1910 2.34   2 
 LSVWIS1  IAML A  1216 44.17        9.32 0.06                          2.34   2 
 LSVSISZ  Pg  2A  1216 44.21                              94    0.38 5 2.87 127 
 LSVSIS1  Sg  1A  1216 44.21                              94   -0.43 7 2.87 127 
 LSVSISZ  IAML A  1217  5.50        1.25 0.70                          2.87 127 
 LSVCISZ  IAML A  1216 42.48        4.44 0.58                          4.44  66 
 LSVCISZ  Pg  0A  1216 44.65                              92    0.3410 4.44  66 
 LSVNISZ  Pg  3A  1216 44.56                              91   -0.04 2 6.45  40 
 LSVNISZ  IAML A  1216 47.28        2.38 0.48                          6.45  40 
                                                                                
 2015  5 3 1313 18.4 L  37.269 -32.283 3.50  wcc  4 .10 0.4Lwcc                1
 GAP=228       0.170       3.4     7.1  2.5 -0.2370E+02  0.1493E+02 -0.7599E+01E
 2015-05-03-1312-59M.VNRC__020                                                 6
 ACTION:DPH 20-02-26 17:47 OP:sb   STATUS:               ID:20150503131318 L   I
 STAT SP IPHASW D HRMM SECON CODA AMPLIT PERI AZIMU VELO AIN AR TRES W  DIS CAZ7
 LSVSIS1  Sg  0A  1313 20.13                             137   -.030101.830 234 
 LSVCIS1  Sg  0A  1313 20.57                             125   0.040102.510   6 
 LSVCIS1  IAML A  1313 20.70       153.1 0.06                         2.510   6 
 LSVNIS1  Sg  1A  1313 20.87                              93   -.080 75.620   4 
 LSVWISZ  IAML A  1313 20.94       544.3 0.16                         4.760 309 
 LSVWISZ ES       1313 19.58                                                    
 LSVWISZ IP       1313 15.58                                                    
 LSVEISZ ES       1313 21.01                                                    
 LSVEISZ IP       1313 16.63                                                    
 LSVNISZ  IAML A  1313 21.76        83.3 0.13                         5.620   4 
 LSVNISZ ES       1313 19.84                                                    
 LSVNISZ IP       1313 16.19                                                    
 LSVSISZ  IAML A  1313 20.21        66.9 0.16                         1.830 234 
 LSVSISZ ES       1313 19.44                                                    
 LSVSISZ IP       1313 15.57                                                    
                                                                                
 2015  5 3 1511 24.9 L  37.275 -32.292  1.5  wcc  4 0.2-1.0Lwcc                1
 GAP=171        0.32       2.4     5.7 12.5 -0.1281E+02  0.6497E+02 -0.2611E+02E
 ACTION:UPD 20-02-26 15:55 OP:sb   STATUS:               ID:20150503151124 L   I
 2015-05-03-1511-08M.VNRC__020                                                 6
 STAT SP IPHASW D HRMM SECON CODA AMPLIT PERI AZIMU VELO AIN AR TRES W  DIS CAZ7
 LSVSIS1  Sg  1A  1511 26.11                             106   -0.16 7 1.90 202 
 LSVCIS1  Sg  0A  1511 26.54                             105   -0.0310 2.08  31 
 LSVNISZ  IAML A  1511 37.36         8.5 0.22                          5.05  13 
 LSVCISZ  IAML A  1511 26.76         5.4 0.06                          2.08  31 
 LSVSISZ  IAML A  1511 26.94         7.2 0.13                          1.90 202 
 LSVSISZ IPg      1511 23.90                                                    
 LSVSISZ ISg      1511 26.10                                                    
 LSVEISZ IPg      1511 24.73                                                    
 LSVEISZ ISg      1511 27.22                                                    
 LSVWISZ  IAML A  1511 26.49        47.1 0.06                          3.71 308 
                                                                                
 2015  5 3 1626 24.2 L  37.287 -32.309  3.8  wcc  4 0.4-0.2Lwcc                1
 GAP=138        0.81      38.6    43.2 98.3 -0.1626E+04 -0.4225E+04  0.3746E+04E
 ACTION:UPD 20-02-26 15:55 OP:sb   STATUS:               ID:20150503162624 L   I
 2015-05-03-1626-06M.VNRC__020                                                 6
 STAT SP IPHASW D HRMM SECON CODA AMPLIT PERI AZIMU VELO AIN AR TRES W  DIS CAZ7
 LSVWIS1  Sg  0A  1626 25.50                             143   -0.2110 1.72 304 
 LSVWIS1  IAML A  1626 26.54      121.16 0.10                          1.72 304 
 LSVEIS1  Sg  1A  1626 26.33                              97   -0.52 7 5.88  97 
 LSVEIS1  IAML A  1626 28.09       13.83 0.13                          5.88  97 
 LSVCISZ  IAML A  1626 26.20        35.6 0.10                          2.58  80 
 LSVEISZ IPg      1626 23.11                                                    
 LSVEISZ ISg      1626 26.33                                                    
 LSVSISZ  IAML A  1626 25.63        39.1 0.10                          3.21 166 
 LSVSISZ IPg      1626 22.42                                                    
 LSVSISZ ISg      1626 25.26                                                    
 LSVWISZ ISg      1626 25.51                                                    
 LSVNISZ IPg      1626 23.29                                                    
 LSVNISZ ISg      1626 26.61                                                    
                                                                                
 2015  5 4 0314 46.7 L  37.274 -32.296  0.0  wcc  4 0.2-1.1Lwcc                1
 GAP=183        0.42       0.9     2.2  5.8 -0.1839E+01 -0.5897E+01  0.3097E+01E
 ACTION:UPD 20-02-26 15:55 OP:sb   STATUS:               ID:20150504031446 L   I
 2015-05-04-0314-27M.VNRC__020                                                 6
 STAT SP IPHASW D HRMM SECON CODA AMPLIT PERI AZIMU VELO AIN AR TRES W  DIS CAZ7
 LSVSIS1  Sg  0A   314 48.11                              94   -0.0710 1.71 193 
 LSVSIS1  IAML A   314 48.56        9.94 0.13                          1.71 193 
 LSVCIS1  Sg  0A   314 48.63                              98   -0.1910 2.34  36 
 LSVCIS1  IAML A   314 48.95       16.43 0.10                          2.34  36 
 LSVEISZ  Pg  0A   314 49.15                              91    0.1810 4.72  81 
 LSVEISZ  IAML A   314 49.53        6.68 0.10                          4.72  81 
 LSVNISZ  Pg  2A   314 49.50                              92    0.35 5 5.23  16 
 LSVNISZ  IAML A   314 50.43        5.11 0.10                          5.23  16 
                                                                                
 2015  5 4 1126  6.0 L  37.281 -32.284  2.9  wcc  4 0.1-0.6Lwcc                1
 GAP=194        0.19       0.5     0.9  2.1 -0.1893E+00  0.5029E+00 -0.5998E+00E
 ACTION:UPD 20-02-26 15:55 OP:sb   STATUS:               ID:20150504112606 L   I
 2015-05-04-1125-51M.VNRC__020                                                 6
 STAT SP IPHASW D HRMM SECON CODA AMPLIT PERI AZIMU VELO AIN AR TRES W  DIS CAZ7
 LSVSIS1  Sg  0A  1126  7.97                             121    0.0910 2.82 210 
 LSVWIS1  Sg  0A  1126  7.96                             107   -0.0210 3.99 294 
 LSVNIS1  Sg  0A  1126  8.27                             106    0.0610 4.27   6 
 LSVSISZ  Pg  0A  1126  6.94                             121   -0.0710 2.82 210 
 LSVSISZ  IAML A  1126  8.62         9.8 0.13                          2.82 210 
 LSVSISZ ISg      1126  7.96                                                    
 LSVNISZ  Pg  1A  1126  7.17                             106   -0.02 7 4.27   6 
 LSVNISZ  IAML A  1126  8.38        11.8 0.13                          4.27   6 
 LSVNISZ ISg      1126  8.25                                                    
 LSVWISZ  Pg  0A  1126  7.07                             107    0.0010 3.99 294 
 LSVWISZ  IAML A  1126  8.11        30.0 0.06                          3.99 294 
 LSVWISZ ISg      1126  7.96                                                    
 LSVCISZ  IAML A  1126  7.65        44.5 0.06                          1.18  16 
                                                                                
 2015  5 4 1335 25.0 L  37.268 -32.317  2.9  wcc  4 0.5-0.0Lwcc                1
 GAP=226        0.91      16.6    20.6 18.1  0.3275E+03 -0.3168E+03 -0.2765E+03E
 ACTION:UPD 20-02-26 15:55 OP:sb   STATUS:               ID:20150504133525 L   I
 2015-05-04-1335-06M.VNRC__020                                                 6
 STAT SP IPHASW D HRMM SECON CODA AMPLIT PERI AZIMU VELO AIN AR TRES W  DIS CAZ7
 LSVSIS1  Sg  0A  1335 26.43                             131   -0.2110 1.79 122 
 LSVSIS1  IAML A  1335 26.59       59.01 0.13                          1.79 122 
 LSVWIS1  Sg  0A  1335 26.49                             100   -0.2610 3.20 348 
 LSVWIS1  IAML A  1335 27.96      156.18 0.10                          3.20 348 
 LSVCISZ  Pg  0A  1335 27.00                              94    0.6310 4.20  51 
 LSVCISZ  IAML A  1335 27.19       68.73 0.16                          4.20  51 
 LSVEIS1  Sg  2A  1335 27.17                              91   -0.79 5 6.73  78 
 LSVEISZ  Pg  3A  1335 27.17                              91    0.56 2 6.73  78 
 LSVEISZ  IAML A  1335 27.71       17.89 0.06                          6.73  78 
 LSVNISZ IPg      1335 23.53                                                    
 LSVNISZ ISg      1335 27.74                                                    
 LSVSISZ IPg      1335 22.65                                                    
 LSVSISZ ISg      1335 26.35                                                    
 LSVWISZ IPg      1335 23.19                                                    
 LSVWISZ ISg      1335 26.45                                                    
                                                                                
